ACS3                    
1 59588U 24077B   24267.84635050  .00030331  00000+0  34606-1 0  9996
2 59588  97.4274 313.1359 0046645 204.1297 155.7669 13.69259330 20894
